{
    "links": {
        "self": "http://www.neowsapp.com/rest/v1/neo/3735498?api_key=iIulBulltgU6a56xZRHN4H3l9WmuAYTsLGpBGhQ2"
    },
    "id": "3735498",
    "neo_reference_id": "3735498",
    "name": "(2015 WQ2)",
    "designation": "2015 WQ2",
    "nasa_jpl_url": "http://ssd.jpl.nasa.gov/sbdb.cgi?sstr=3735498",
    "absolute_magnitude_h": 24.5,
    "estimated_diameter": {
        "kilometers": {
            "estimated_diameter_min": 0.0334622374,
            "estimated_diameter_max": 0.0748238376
        },
        "meters": {
            "estimated_diameter_min": 33.4622374455,
            "estimated_diameter_max": 74.8238376074
        },
        "miles": {
            "estimated_diameter_min": 0.0207924639,
            "estimated_diameter_max": 0.0464933628
        },
        "feet": {
            "estimated_diameter_min": 109.7842471007,
            "estimated_diameter_max": 245.4850393757
        }
    },
    "is_potentially_hazardous_asteroid": false,
    "close_approach_data": [
        {
            "close_approach_date": "2015-11-06",
            "close_approach_date_full": "2015-Nov-06 13:21",
            "epoch_date_close_approach": 1446816060000,
            "relative_velocity": {
                "kilometers_per_second": "8.9360069191",
                "kilometers_per_hour": "32169.6249088813",
                "miles_per_hour": "19988.9538774102"
            },
            "miss_distance": {
                "astronomical": "0.1025540664",
                "lunar": "39.8935318296",
                "kilometers": "15341869.893278568",
                "miles": "9532995.9007895184"
            },
            "orbiting_body": "Earth"
        }
    ],
    "orbital_data": {
        "orbit_id": "7",
        "orbit_determination_date": "2017-04-06 08:30:26",
        "first_observation_date": "2015-11-20",
        "last_observation_date": "2015-12-02",
        "data_arc_in_days": 12,
        "observations_used": 51,
        "orbit_uncertainty": "8",
        "minimum_orbit_intersection": ".10028",
        "jupiter_tisserand_invariant": "3.191",
        "epoch_osculation": "2457348.5",
        "eccentricity": ".5699910212917748",
        "semi_major_axis": "2.508668353241441",
        "inclination": "11.80903543218728",
        "ascending_node_longitude": "55.29704678511848",
        "orbital_period": "1451.3204130664",
        "perihelion_distance": "1.078749916494997",
        "perihelion_argument": "340.4914033669342",
        "aphelion_distance": "3.938586789987885",
        "perihelion_time": "2457325.048902645552",
        "mean_anomaly": "5.817044238883057",
        "mean_motion": ".2480499803894989",
        "equinox": "J2000",
        "orbit_class": {
            "orbit_class_type": "AMO",
            "orbit_class_description": "Near-Earth asteroid orbits similar to that of 1221 Amor",
            "orbit_class_range": "1.017 AU < q (perihelion) < 1.3 AU"
        }
    },
    "is_sentry_object": false
}